OBJECT_NAME,OBJECT_ID,EPOCH,MEAN_MOTION,ECCENTRICITY,INCLINATION,RA_OF_ASC_NODE,ARG_OF_PERICENTER,MEAN_ANOMALY,EPHEMERIS_TYPE,CLASSIFICATION_TYPE,NORAD_CAT_ID,ELEMENT_SET_NO,REV_AT_EPOCH,BSTAR,MEAN_MOTION_DOT,MEAN_MOTION_DDOT
STARLINK-11506 [DTC],2024-254E,2026-04-26T11:51:41.179968,15.70995662,.0002126,42.9985,294.4731,245.1211,114.9436,0,U,62466,999,7676,.22937E-2,.307002E-2,0
STARLINK-11486 [DTC],2024-254F,2026-04-26T13:00:29.225088,15.70932560,.0000868,42.9980,294.8564,239.2984,120.7799,0,U,62467,999,7692,.1659E-2,.218981E-2,0
STARLINK-11511 [DTC],2024-254G,2026-04-26T12:29:54.409632,15.70902295,.0001761,42.9982,294.6868,285.6592,74.4081,0,U,62468,999,7692,.10924E-2,.14253E-2,0
STARLINK-11505 [DTC],2024-254H,2026-04-26T12:14:37.162176,15.71031523,.0008294,42.9986,294.6014,293.3845,66.6150,0,U,62469,999,7691,.22961E-2,.308226E-2,0
STARLINK-11497 [DTC],2024-254J,2026-04-26T12:37:33.590208,15.70861357,.0001462,42.9988,294.7288,258.9052,101.1651,0,U,62470,999,7692,.17285E-2,.227733E-2,0
STARLINK-11477 [DTC],2024-254K,2026-04-26T12:06:58.349664,15.71019359,.0002145,42.9993,294.5567,248.3996,111.6643,0,U,62471,999,7691,.27959E-2,.377934E-2,0
STARLINK-11500 [DTC],2024-254L,2026-04-25T19:12:10.057824,15.70851753,.00006468,42.9987,298.7272,210.9186,149.1644,0,U,62472,999,7628,.14393083E-2,.188578E-2,0
STARLINK-11464 [DTC],2024-254M,2026-04-26T12:45:11.579328,15.70886070,.0003117,43.0012,294.7695,257.0072,103.0447,0,U,62473,999,7697,.14875E-2,.195363E-2,0
STARLINK-11502 [DTC],2024-254N,2026-04-26T04:44:27.885408,15.70995809,.00029,42.9976,296.5548,294.1727,65.8837,0,U,62474,999,7687,.22956E-2,.307272E-2,0
STARLINK-32657,2024-254P,2026-04-26T08:21:22.206816,15.27588821,.0001498,42.9970,110.5241,266.4978,93.5702,0,U,62475,999,7475,.10322E-2,.28258E-3,0
STARLINK-32734,2024-254Q,2026-04-26T10:29:31.697088,15.27606230,.0001706,43.0022,106.8622,268.6619,91.4037,0,U,62476,999,7495,.99896E-3,.27351E-3,0
STARLINK-32733,2024-254R,2026-04-26T07:58:01.744032,15.27598461,.0001597,43.0002,106.9296,270.2097,89.8572,0,U,62477,999,7494,.14933E-2,.41082E-3,0
STARLINK-32707,2024-254S,2026-04-25T16:59:00.386304,15.27592319,.0000743,42.9995,110.8423,249.5327,110.5445,0,U,62478,999,7484,.53702665E-3,.1455E-3,0
STARLINK-32705,2024-254T,2026-04-26T07:27:56.409120,15.27604724,.0001391,42.9983,99.8517,274.0046,86.0647,0,U,62479,999,7486,.5402E-3,.14644E-3,0
STARLINK-32743,2024-254U,2026-04-26T07:46:54.528672,15.27599029,.0001343,42.9980,106.8742,270.7416,89.3282,0,U,62480,999,7494,.83468E-3,.22791E-3,0
STARLINK-32753,2024-254V,2026-04-26T08:09:06.529824,15.27599640,.0001569,42.9996,106.9895,271.3028,88.7643,0,U,62481,999,7494,.84516E-3,.23082E-3,0
STARLINK-32699,2024-254W,2026-04-26T09:46:16.247136,15.27594316,.0001401,42.9993,110.1033,268.1512,91.9179,0,U,62482,999,7476,.11177E-2,.30635E-3,0
THURAYA-4,2025-001A,2026-04-26T03:30:34.589952,1.00274501,.0000084,0.0404,78.3423,214.9472,17.7741,0,U,62483,999,365,0,.126E-5,0
SHIJIAN-25 (SJ-25),2025-002A,2026-04-25T11:31:49.094112,1.00259788,.0051127,4.9907,61.4724,168.3426,283.8083,0,U,62485,999,483,0,-.362E-5,0
STARLINK-32713,2025-003A,2026-04-26T10:34:04.107648,15.27580119,.000051,43.0011,19.3673,239.7893,120.2909,0,U,62487,999,7395,.79834E-3,.21771E-3,0
STARLINK-32732,2025-003B,2026-04-25T18:04:23.593440,15.27597228,.00009645,42.9988,22.8043,270.2230,89.8511,0,U,62488,999,7375,.11699746E-2,.3209E-3,0
STARLINK-32328,2025-003C,2026-04-26T10:56:15.777888,15.27596228,.0001632,43.0087,19.4757,258.0998,101.9671,0,U,62489,999,7397,.49077E-3,.13274E-3,0
STARLINK-32332,2025-003D,2026-04-26T10:39:37.520928,15.27587373,.0001368,43.0022,19.3953,51.9528,308.1447,0,U,62490,999,7395,.50568E-3,.13682E-3,0
STARLINK-32717,2025-003E,2026-04-26T10:11:51.470592,15.27595277,.000102,43.0050,19.2509,290.9962,69.0781,0,U,62491,999,7397,.64413E-3,.17513E-3,0
STARLINK-32757,2025-003F,2026-04-26T10:48:51.362208,15.27588828,.0001916,43.0069,19.4365,257.4432,102.6205,0,U,62492,999,7385,.77712E-3,.2119E-3,0
STARLINK-32731,2025-003G,2026-04-26T12:00:02.000160,15.27535210,.0001435,43.0040,19.3334,273.0971,288.2712,0,U,62493,999,590,-.12427E-4,-.604E-5,0
STARLINK-32694,2025-003H,2026-04-25T10:24:42.203520,15.27607360,.00011692,42.9986,24.7062,278.0895,81.9824,0,U,62494,999,7382,.92001666E-3,.25162E-3,0
STARLINK-32708,2025-003J,2026-04-26T10:43:18.361056,15.27597011,.0000652,43.0042,19.4118,344.6841,15.3991,0,U,62495,999,7385,.46767E-3,.12636E-3,0
STARLINK-32718,2025-003K,2026-04-26T09:51:30.544416,15.27591382,.0001213,43.0018,19.1448,10.4005,349.6872,0,U,62496,999,7385,.1156E-2,.31697E-3,0
STARLINK-32729,2025-003L,2026-04-26T10:02:36.762720,15.27585057,.0001136,42.9993,19.1920,28.0960,331.9953,0,U,62497,999,7397,.11961E-2,.32803E-3,0
STARLINK-32739,2025-003M,2026-04-26T10:24:49.048128,15.27580190,.0000524,43.0016,19.3131,278.8051,81.2742,0,U,62498,999,7392,.97006E-3,.26528E-3,0
STARLINK-32714,2025-003N,2026-04-25T19:23:57.276384,15.27600471,.00012084,43.0009,23.2227,216.6212,143.4558,0,U,62499,999,7387,.11248553E-2,.3084E-3,0
STARLINK-32685,2025-003P,2026-04-26T10:54:25.420032,15.27583420,.0000922,43.0057,19.4698,295.6153,64.4603,0,U,62500,999,7392,.44175E-3,.11915E-3,0
STARLINK-32691,2025-003Q,2026-04-25T10:50:37.038048,15.27565288,.00009859,43.0030,24.8414,285.9865,74.0878,0,U,62501,999,7381,.21369828E-2,.58988E-3,0
STARLINK-32788,2025-003R,2026-04-26T10:17:24.679104,15.27590823,.0000828,42.9999,19.2799,260.4535,99.6223,0,U,62502,999,7385,.58082E-3,.1576E-3,0
STARLINK-32768,2025-003S,2026-04-26T09:53:21.041376,15.27591291,.0001007,42.9994,19.1471,270.9599,89.1137,0,U,62503,999,7385,.11984E-2,.32875E-3,0
STARLINK-32792,2025-003T,2026-04-25T17:58:50.689920,15.27611244,.00009349,42.9983,22.7697,293.2116,66.8637,0,U,62504,999,7375,.88146715E-3,.24096E-3,0
STARLINK-32725,2025-003U,2026-04-25T18:00:41.333760,15.27582477,.00012676,43.0009,22.7653,250.4926,109.5789,0,U,62505,999,7375,.60898268E-3,.16535E-3,0
STARLINK-32681,2025-003V,2026-04-26T08:57:31.972608,15.27589102,.0000795,42.9968,1.1285,337.5126,22.5690,0,U,62506,999,7417,.62318E-3,.16931E-3,0
STARLINK-32679,2025-003W,2026-04-25T03:47:56.334624,15.27574785,.00019888,43.0043,26.9048,253.9145,106.1488,0,U,62507,999,7377,.93992679E-3,.25689E-3,0
STARLINK-32749,2025-003X,2026-04-26T10:08:09.911616,15.27572993,.0001594,43.0039,19.2261,275.4643,84.6027,0,U,62508,999,7385,.13039E-2,.35784E-3,0
STARLINK-32744,2025-003Y,2026-04-26T10:59:58.362432,15.27607891,.0000799,43.0061,19.5027,285.1035,74.9728,0,U,62509,999,7385,.10874E-2,.29807E-3,0
STARLINK-32701,2025-003Z,2026-04-26T10:28:30.386784,15.27596199,.0001769,43.0066,19.3323,267.6862,92.3787,0,U,62510,999,7385,.61256E-3,.16641E-3,0
STARLINK-11452 [DTC],2025-004A,2026-04-26T11:18:36.061344,15.70900462,.000228,43.0005,142.6920,255.9682,104.0933,0,U,62511,999,7564,.17258E-2,.227748E-2,0
STARLINK-11443 [DTC],2025-004B,2026-04-26T10:32:55.036032,15.70876614,.0001725,43.0000,143.3322,284.9800,75.0876,0,U,62512,999,7471,.13853E-2,.181514E-2,0
STARLINK-11440 [DTC],2025-004C,2026-04-26T10:09:58.334112,15.70984030,.0003988,43.0044,143.2027,263.8667,96.1746,0,U,62513,999,7471,.22891E-2,.306252E-2,0
STARLINK-11514 [DTC],2025-004D,2026-04-26T11:12:16.716960,15.70918063,.0001125,43.0010,142.6557,299.5198,60.5558,0,U,62514,999,7472,.2715E-2,.364866E-2,0
STARLINK-11508 [DTC],2025-004E,2026-04-26T11:03:19.200096,15.70854704,.0000822,43.0006,142.6048,284.4981,75.5795,0,U,62515,999,7472,.15103E-2,.198154E-2,0
STARLINK-11510 [DTC],2025-004F,2026-04-26T10:17:37.571712,15.70863891,.0001406,43.0023,143.2425,269.1214,90.9492,0,U,62516,999,7471,.1033E-2,.134401E-2,0
STARLINK-11512 [DTC],2025-004G,2026-04-26T10:40:23.008800,15.70868509,.0001078,43.0016,142.4765,303.0913,56.9852,0,U,62517,999,7472,.17263E-2,.227495E-2,0
STARLINK-11450 [DTC],2025-004H,2026-04-26T11:26:14.917920,15.70868092,.0001126,43.0015,142.7322,264.8548,95.2191,0,U,62518,999,7472,.14135E-2,.185244E-2,0
STARLINK-11507 [DTC],2025-004J,2026-04-26T08:30:46.562976,15.70908900,.0003423,43.0002,143.5388,257.8260,102.2225,0,U,62519,999,7470,.15752E-2,.20742E-2,0
STARLINK-11482 [DTC],2025-004K,2026-04-26T06:13:20.445024,15.70811932,.0001233,43.0000,143.6674,232.1370,127.9386,0,U,62520,999,7469,.1653E-2,.217034E-2,0
STARLINK-11528 [DTC],2025-004L,2026-04-26T10:25:16.113792,15.70878368,.0001274,42.9992,143.2801,269.1087,90.9635,0,U,62521,999,7471,.13307E-2,.174197E-2,0
STARLINK-11516 [DTC],2025-004M,2026-04-26T11:10:57.614304,15.70899349,.0001733,43.0029,142.6453,282.3373,77.7301,0,U,62522,999,7472,.197E-2,.261079E-2,0
STARLINK-11527 [DTC],2025-004N,2026-04-25T10:30:42.328224,15.70879808,.0002058,43.0020,148.6885,258.1064,101.9573,0,U,62523,999,7456,.15344814E-2,.201636E-2,0
STARLINK-32748,2025-004P,2026-04-26T05:52:51.417120,15.27598812,.000104,43.0033,311.1269,275.9564,84.1169,0,U,62524,999,7373,.10603E-2,.29047E-3,0
STARLINK-32777,2025-004Q,2026-04-26T13:06:51.654816,15.27590409,.0002965,42.9982,309.9510,283.0743,76.9778,0,U,62525,999,7377,.11816E-2,.32408E-3,0
STARLINK-32741,2025-004R,2026-04-26T12:50:53.198880,15.27599382,.0003413,43.0007,306.4030,274.2829,85.7632,0,U,62526,999,7381,.50119E-3,.13564E-3,0
STARLINK-32754,2025-004S,2026-04-26T12:31:41.354688,15.27600404,.0000813,42.9972,309.7658,252.5749,107.5014,0,U,62527,999,7282,.75791E-3,.20665E-3,0
STARLINK-32786,2025-004T,2026-04-26T13:17:44.532096,15.27590978,.0000769,42.9951,309.1485,334.5107,25.5706,0,U,62528,999,7283,.14049E-2,.38613E-3,0
STARLINK-32789,2025-004U,2026-04-26T12:40:56.146368,15.27584868,.0001612,43.0008,309.8103,241.2193,118.8497,0,U,62529,999,7377,.10495E-2,.28734E-3,0
STARLINK-32791,2025-004V,2026-04-26T12:20:35.255616,15.27596052,.0000508,42.9967,309.7038,302.9552,57.1250,0,U,62530,999,7377,.11792E-2,.32346E-3,0
STARLINK-32785,2025-004W,2026-04-26T12:52:02.230752,15.27614426,.0002491,43.0013,309.8763,267.4463,92.6104,0,U,62531,999,7377,.86198E-3,.23559E-3,0
STARLINK-11538 [DTC],2025-006A,2026-04-26T13:12:05.588352,15.71042582,.0000909,42.9992,211.0460,191.9368,168.1479,0,U,62554,999,7413,.19174E-2,.255463E-2,0
